[{"OBJECT_NAME":"ONEWEB-0092","OBJECT_ID":"2020-020P","EPOCH":"2025-10-11T03:19:35.514336","MEAN_MOTION":13.11416451,"ECCENTRICITY":0.00018227,"INCLINATION":87.8814,"RA_OF_ASC_NODE":70.6608,"ARG_OF_PERICENTER":87.8945,"MEAN_ANOMALY":272.2392,"EPHEMERIS_TYPE":0,"CLASSIFICATION_TYPE":"U","NORAD_CAT_ID":45437,"ELEMENT_SET_NO":999,"REV_AT_EPOCH":27014,"BSTAR":-0.0017400846,"MEAN_MOTION_DOT":-6.04e-6,"MEAN_MOTION_DDOT":0},{"OBJECT_NAME":"ONEWEB-0085","OBJECT_ID":"2020-020Q","EPOCH":"2025-10-11T07:51:50.725152","MEAN_MOTION":13.11416596,"ECCENTRICITY":0.00016591,"INCLINATION":87.8813,"RA_OF_ASC_NODE":70.6359,"ARG_OF_PERICENTER":93.935,"MEAN_ANOMALY":266.1968,"EPHEMERIS_TYPE":0,"CLASSIFICATION_TYPE":"U","NORAD_CAT_ID":45438,"ELEMENT_SET_NO":999,"REV_AT_EPOCH":27005,"BSTAR":0.0013899574,"MEAN_MOTION_DOT":5.05e-6,"MEAN_MOTION_DDOT":0},{"OBJECT_NAME":"ONEWEB-0096","OBJECT_ID":"2020-020R","EPOCH":"2025-10-11T02:24:41.627520","MEAN_MOTION":13.1141525,"ECCENTRICITY":0.00014477,"INCLINATION":87.8824,"RA_OF_ASC_NODE":70.6548,"ARG_OF_PERICENTER":96.2642,"MEAN_ANOMALY":263.865,"EPHEMERIS_TYPE":0,"CLASSIFICATION_TYPE":"U","NORAD_CAT_ID":45439,"ELEMENT_SET_NO":999,"REV_AT_EPOCH":27001,"BSTAR":0.0011032269,"MEAN_MOTION_DOT":4.04e-6,"MEAN_MOTION_DDOT":0},{"OBJECT_NAME":"ONEWEB-0037","OBJECT_ID":"2020-020S","EPOCH":"2025-10-10T20:26:59.223840","MEAN_MOTION":13.1141985,"ECCENTRICITY":0.00016872,"INCLINATION":87.8828,"RA_OF_ASC_NODE":70.6701,"ARG_OF_PERICENTER":91.7952,"MEAN_ANOMALY":268.3369,"EPHEMERIS_TYPE":0,"CLASSIFICATION_TYPE":"U","NORAD_CAT_ID":45440,"ELEMENT_SET_NO":999,"REV_AT_EPOCH":27001,"BSTAR":0.0010726443,"MEAN_MOTION_DOT":3.93e-6,"MEAN_MOTION_DDOT":0},{"OBJECT_NAME":"ONEWEB-0042","OBJECT_ID":"2020-020T","EPOCH":"2025-10-11T07:39:26.777952","MEAN_MOTION":13.11416935,"ECCENTRICITY":0.00015888,"INCLINATION":87.8815,"RA_OF_ASC_NODE":70.6138,"ARG_OF_PERICENTER":90.32,"MEAN_ANOMALY":269.811,"EPHEMERIS_TYPE":0,"CLASSIFICATION_TYPE":"U","NORAD_CAT_ID":45441,"ELEMENT_SET_NO":999,"REV_AT_EPOCH":27004,"BSTAR":0.0015232242,"MEAN_MOTION_DOT":5.53e-6,"MEAN_MOTION_DDOT":0},{"OBJECT_NAME":"ONEWEB-0098","OBJECT_ID":"2020-020U","EPOCH":"2025-10-11T07:33:32.533632","MEAN_MOTION":13.11417519,"ECCENTRICITY":0.0001694,"INCLINATION":87.8816,"RA_OF_ASC_NODE":70.6259,"ARG_OF_PERICENTER":96.7638,"MEAN_ANOMALY":263.3682,"EPHEMERIS_TYPE":0,"CLASSIFICATION_TYPE":"U","NORAD_CAT_ID":45442,"ELEMENT_SET_NO":999,"REV_AT_EPOCH":27002,"BSTAR":0.0011782444,"MEAN_MOTION_DOT":4.3e-6,"MEAN_MOTION_DDOT":0},{"OBJECT_NAME":"ONEWEB-0055","OBJECT_ID":"2020-020V","EPOCH":"2025-10-11T03:29:22.627392","MEAN_MOTION":13.11417611,"ECCENTRICITY":0.00016563,"INCLINATION":87.8817,"RA_OF_ASC_NODE":70.6607,"ARG_OF_PERICENTER":97.0366,"MEAN_ANOMALY":263.0951,"EPHEMERIS_TYPE":0,"CLASSIFICATION_TYPE":"U","NORAD_CAT_ID":45443,"ELEMENT_SET_NO":999,"REV_AT_EPOCH":26997,"BSTAR":-0.00069615324,"MEAN_MOTION_DOT":-2.34e-6,"MEAN_MOTION_DDOT":0},{"OBJECT_NAME":"ONEWEB-0093","OBJECT_ID":"2020-020W","EPOCH":"2025-10-11T02:54:10.760832","MEAN_MOTION":13.11413903,"ECCENTRICITY":0.00012813,"INCLINATION":87.8819,"RA_OF_ASC_NODE":70.6514,"ARG_OF_PERICENTER":83.7717,"MEAN_ANOMALY":276.3557,"EPHEMERIS_TYPE":0,"CLASSIFICATION_TYPE":"U","NORAD_CAT_ID":45444,"ELEMENT_SET_NO":999,"REV_AT_EPOCH":27003,"BSTAR":-0.0011505438,"MEAN_MOTION_DOT":-3.95e-6,"MEAN_MOTION_DDOT":0},{"OBJECT_NAME":"ONEWEB-0029","OBJECT_ID":"2020-020X","EPOCH":"2025-10-10T19:57:41.567040","MEAN_MOTION":13.11417378,"ECCENTRICITY":0.00014923,"INCLINATION":87.8819,"RA_OF_ASC_NODE":70.7218,"ARG_OF_PERICENTER":95.2437,"MEAN_ANOMALY":264.8861,"EPHEMERIS_TYPE":0,"CLASSIFICATION_TYPE":"U","NORAD_CAT_ID":45445,"ELEMENT_SET_NO":999,"REV_AT_EPOCH":26997,"BSTAR":-0.001345559,"MEAN_MOTION_DOT":-4.64e-6,"MEAN_MOTION_DDOT":0},{"OBJECT_NAME":"ONEWEB-0068","OBJECT_ID":"2020-020Y","EPOCH":"2025-10-11T02:53:46.631040","MEAN_MOTION":13.11415342,"ECCENTRICITY":0.00014217,"INCLINATION":87.8819,"RA_OF_ASC_NODE":70.6527,"ARG_OF_PERICENTER":95.5569,"MEAN_ANOMALY":264.5721,"EPHEMERIS_TYPE":0,"CLASSIFICATION_TYPE":"U","NORAD_CAT_ID":45446,"ELEMENT_SET_NO":999,"REV_AT_EPOCH":26995,"BSTAR":-0.00081918963,"MEAN_MOTION_DOT":-2.78e-6,"MEAN_MOTION_DDOT":0},{"OBJECT_NAME":"ONEWEB-0046","OBJECT_ID":"2020-020Z","EPOCH":"2025-10-11T02:41:46.361760","MEAN_MOTION":13.11414553,"ECCENTRICITY":0.00015551,"INCLINATION":87.8814,"RA_OF_ASC_NODE":70.6633,"ARG_OF_PERICENTER":86.2054,"MEAN_ANOMALY":273.9252,"EPHEMERIS_TYPE":0,"CLASSIFICATION_TYPE":"U","NORAD_CAT_ID":45447,"ELEMENT_SET_NO":999,"REV_AT_EPOCH":26996,"BSTAR":-7.0444854e-5,"MEAN_MOTION_DOT":-1.2e-7,"MEAN_MOTION_DDOT":0},{"OBJECT_NAME":"ONEWEB-0063","OBJECT_ID":"2020-020AA","EPOCH":"2025-10-11T03:23:16.447776","MEAN_MOTION":13.11417356,"ECCENTRICITY":0.00017574,"INCLINATION":87.8818,"RA_OF_ASC_NODE":70.656,"ARG_OF_PERICENTER":87.6851,"MEAN_ANOMALY":272.4478,"EPHEMERIS_TYPE":0,"CLASSIFICATION_TYPE":"U","NORAD_CAT_ID":45448,"ELEMENT_SET_NO":999,"REV_AT_EPOCH":27005,"BSTAR":-0.00097979732,"MEAN_MOTION_DOT":-3.35e-6,"MEAN_MOTION_DDOT":0},{"OBJECT_NAME":"ONEWEB-0019","OBJECT_ID":"2020-020AB","EPOCH":"2025-10-11T02:45:25.697664","MEAN_MOTION":13.11413554,"ECCENTRICITY":0.00015999,"INCLINATION":87.8809,"RA_OF_ASC_NODE":70.676,"ARG_OF_PERICENTER":98.0103,"MEAN_ANOMALY":262.1207,"EPHEMERIS_TYPE":0,"CLASSIFICATION_TYPE":"U","NORAD_CAT_ID":45449,"ELEMENT_SET_NO":999,"REV_AT_EPOCH":26989,"BSTAR":-0.00024645003,"MEAN_MOTION_DOT":-7.5e-7,"MEAN_MOTION_DDOT":0},{"OBJECT_NAME":"ONEWEB-0094","OBJECT_ID":"2020-020AC","EPOCH":"2025-10-11T06:49:11.791200","MEAN_MOTION":13.17652569,"ECCENTRICITY":0.00015741,"INCLINATION":87.9097,"RA_OF_ASC_NODE":55.3292,"ARG_OF_PERICENTER":98.8367,"MEAN_ANOMALY":261.2943,"EPHEMERIS_TYPE":0,"CLASSIFICATION_TYPE":"U","NORAD_CAT_ID":45450,"ELEMENT_SET_NO":999,"REV_AT_EPOCH":27353,"BSTAR":0.00023815783,"MEAN_MOTION_DOT":1.05e-6,"MEAN_MOTION_DDOT":0},{"OBJECT_NAME":"ONEWEB-0087","OBJECT_ID":"2020-020AD","EPOCH":"2025-10-11T03:37:43.956480","MEAN_MOTION":13.11418057,"ECCENTRICITY":0.00013142,"INCLINATION":87.8827,"RA_OF_ASC_NODE":70.6055,"ARG_OF_PERICENTER":97.2785,"MEAN_ANOMALY":262.8493,"EPHEMERIS_TYPE":0,"CLASSIFICATION_TYPE":"U","NORAD_CAT_ID":45451,"ELEMENT_SET_NO":999,"REV_AT_EPOCH":26994,"BSTAR":0.00016884282,"MEAN_MOTION_DOT":7.3e-7,"MEAN_MOTION_DDOT":0},{"OBJECT_NAME":"ONEWEB-0082","OBJECT_ID":"2020-020AE","EPOCH":"2025-10-11T03:33:01.437120","MEAN_MOTION":13.11400632,"ECCENTRICITY":0.0001198,"INCLINATION":87.8834,"RA_OF_ASC_NODE":70.6319,"ARG_OF_PERICENTER":101.1881,"MEAN_ANOMALY":258.9382,"EPHEMERIS_TYPE":0,"CLASSIFICATION_TYPE":"U","NORAD_CAT_ID":45452,"ELEMENT_SET_NO":999,"REV_AT_EPOCH":27003,"BSTAR":0.00085615699,"MEAN_MOTION_DOT":3.16e-6,"MEAN_MOTION_DDOT":0},{"OBJECT_NAME":"ONEWEB-0050","OBJECT_ID":"2020-020AF","EPOCH":"2025-10-11T05:15:20.894976","MEAN_MOTION":14.8907531,"ECCENTRICITY":0.00048469,"INCLINATION":88.6245,"RA_OF_ASC_NODE":267.5067,"ARG_OF_PERICENTER":113.1497,"MEAN_ANOMALY":247.0242,"EPHEMERIS_TYPE":0,"CLASSIFICATION_TYPE":"U","NORAD_CAT_ID":45453,"ELEMENT_SET_NO":999,"REV_AT_EPOCH":30331,"BSTAR":0.00059221548,"MEAN_MOTION_DOT":5.601e-5,"MEAN_MOTION_DDOT":0}]
