ONEWEB-0092             
1 45437U 20020P   25284.13860549 -.00000604  00000+0 -17401-2 0  9990
2 45437  87.8814  70.6608 0001822  87.8945 272.2392 13.11416451270140
ONEWEB-0085             
1 45438U 20020Q   25284.32767043  .00000505  00000+0  13900-2 0  9995
2 45438  87.8813  70.6359 0001659  93.9350 266.1968 13.11416596270050
ONEWEB-0096             
1 45439U 20020R   25284.10048180  .00000404  00000+0  11032-2 0  9998
2 45439  87.8824  70.6548 0001447  96.2642 263.8650 13.11415250270012
ONEWEB-0037             
1 45440U 20020S   25283.85207435  .00000393  00000+0  10726-2 0  9997
2 45440  87.8828  70.6701 0001687  91.7952 268.3369 13.11419850270016
ONEWEB-0042             
1 45441U 20020T   25284.31905993  .00000553  00000+0  15232-2 0  9999
2 45441  87.8815  70.6138 0001588  90.3200 269.8110 13.11416935270042
ONEWEB-0098             
1 45442U 20020U   25284.31495988  .00000430  00000+0  11782-2 0  9998
2 45442  87.8816  70.6259 0001694  96.7638 263.3682 13.11417519270021
ONEWEB-0055             
1 45443U 20020V   25284.14540078 -.00000234  00000+0 -69615-3 0  9994
2 45443  87.8817  70.6607 0001656  97.0366 263.0951 13.11417611269971
ONEWEB-0093             
1 45444U 20020W   25284.12095788 -.00000395  00000+0 -11505-2 0  9998
2 45444  87.8819  70.6514 0001281  83.7717 276.3557 13.11413903270035
ONEWEB-0029             
1 45445U 20020X   25283.83173110 -.00000464  00000+0 -13456-2 0  9996
2 45445  87.8819  70.7218 0001492  95.2437 264.8861 13.11417378269970
ONEWEB-0068             
1 45446U 20020Y   25284.12067860 -.00000278  00000+0 -81919-3 0  9997
2 45446  87.8819  70.6527 0001421  95.5569 264.5721 13.11415342269953
ONEWEB-0046             
1 45447U 20020Z   25284.11234215 -.00000012  00000+0 -70445-4 0  9996
2 45447  87.8814  70.6633 0001555  86.2054 273.9252 13.11414553269968
ONEWEB-0063             
1 45448U 20020AA  25284.14116259 -.00000335  00000+0 -97980-3 0  9997
2 45448  87.8818  70.6560 0001757  87.6851 272.4478 13.11417356270056
ONEWEB-0019             
1 45449U 20020AB  25284.11488076 -.00000075  00000+0 -24645-3 0  9993
2 45449  87.8809  70.6760 0001599  98.0103 262.1207 13.11413554269891
ONEWEB-0094             
1 45450U 20020AC  25284.28416425  .00000105  00000+0  23816-3 0  9993
2 45450  87.9097  55.3292 0001574  98.8367 261.2943 13.17652569273536
ONEWEB-0087             
1 45451U 20020AD  25284.15120320  .00000073  00000+0  16884-3 0  9997
2 45451  87.8827  70.6055 0001314  97.2785 262.8493 13.11418057269946
ONEWEB-0082             
1 45452U 20020AE  25284.14793330  .00000316  00000+0  85616-3 0  9993
2 45452  87.8834  70.6319 0001198 101.1881 258.9382 13.11400632270035
ONEWEB-0050             
1 45453U 20020AF  25284.21899184  .00005601  00000+0  59222-3 0  9992
2 45453  88.6245 267.5067 0004846 113.1497 247.0242 14.89075310303316
